ONEWEB-0273             
1 48991U 21060AA  24012.63465419 -.00000024  00000+0 -96339-4 0  9998
2 48991  87.9051  45.2230 0002082  98.1002 262.0365 13.16590016122934
ONEWEB-0274             
1 48992U 21060AB  24012.58398743 -.00000001  00000+0 -37271-4 0  9993
2 48992  87.9050  45.2366 0001624 111.5569 248.5735 13.16593958122964
ONEWEB-0275             
1 48993U 21060AC  24012.64891417 -.00000029  00000+0 -10904-3 0  9990
2 48993  87.9042  45.2177 0001977  97.2441 262.8914 13.16591891122902
ONEWEB-0276             
1 48994U 21060AD  24012.91014476  .00000128  00000+0  30069-3 0  9995
2 48994  87.9051  45.1608 0002204  98.6947 261.4433 13.16597581122959
ONEWEB-0277             
1 48995U 21060AE  24012.61881096  .00000147  00000+0  35097-3 0  9990
2 48995  87.9050  45.2578 0002299 105.4513 254.6872 13.16600310122907
ONEWEB-0278             
1 48996U 21060AF  24012.60931563  .00000092  00000+0  20601-3 0  9999
2 48996  87.9050  45.2176 0001866  83.6270 276.5074 13.16594134123036
ONEWEB-0279             
1 48997U 21060AG  24012.61721114  .00000127  00000+0  29893-3 0  9991
2 48997  87.9049  45.2140 0001712  98.8512 261.2812 13.16594632122968
ONEWEB-0280             
1 48998U 21060AH  24013.16346651  .00000026  00000+0  35012-4 0  9991
2 48998  87.9054  45.1050 0002303 109.4674 250.6706 13.16601244124266
ONEWEB-0281             
1 48999U 21060AJ  24012.63783500  .00000050  00000+0  96934-4 0  9998
2 48999  87.9051  45.2128 0001645 100.5825 259.5492 13.16595250122974
ONEWEB-0282             
1 49000U 21060AK  24012.59188741 -.00000066  00000+0 -20622-3 0  9992
2 49000  87.9050  45.2389 0002295  97.0928 263.0463 13.16594619124262
ONEWEB-0283             
1 49001U 21060AL  24012.58081483 -.00000753  00000+0 -20022-2 0  9993
2 49001  87.9045  45.2502 0002121 106.2337 253.9027 13.16597171122953
ONEWEB-0284             
1 49002U 21060AM  24012.65048637 -.00000011  00000+0 -61673-4 0  9992
2 49002  87.9035  45.2287 0002129  93.7786 266.3589 13.16595349122944
ONEWEB-0285             
1 49075U 21075A   24012.88041467  .00000392  00000+0  10556-2 0  9999
2 49075  87.9017 166.9861 0001532  96.1555 263.9748 13.12442559118957
ONEWEB-0286             
1 49076U 21075B   24012.92790378 -.00000117  00000+0 -36074-3 0  9998
2 49076  87.9014 166.9849 0001107  90.0524 270.0731 13.12443539118318
ONEWEB-0287             
1 49077U 21075C   24012.91614405  .00000084  00000+0  18402-3 0  9990
2 49077  87.9211 182.0887 0001490  78.3844 281.7455 13.17649273116912
ONEWEB-0288             
1 49078U 21075D   24012.98826226 -.00000332  00000+0 -95802-3 0  9991
2 49078  87.9012 166.9764 0001471  90.8506 269.2791 13.12442507119935
ONEWEB-0289             
1 49079U 21075E   24013.02056231 -.00000051  00000+0 -16481-3 0  9993
2 49079  87.9212 182.0935 0001551  99.7438 260.3869 13.17639140118470
ONEWEB-0290             
1 49080U 21075F   24012.92721415  .00000049  00000+0  92486-4 0  9991
2 49080  87.9211 182.0749 0001831  80.4917 279.6421 13.17649268116909
ONEWEB-0291             
1 49081U 21075G   24012.91140739  .00000073  00000+0  15449-3 0  9995
2 49081  87.9205 182.1073 0001532  82.2460 277.8846 13.17647949116898
ONEWEB-0293             
1 49082U 21075H   24012.93670167 -.00000451  00000+0 -11943-2 0  9997
2 49082  87.9208 182.1078 0001686  82.7715 277.3608 13.17651053116921
ONEWEB-0294             
1 49083U 21075J   24012.91839029 -.00000175  00000+0 -52281-3 0  9994
2 49083  87.9012 166.9898 0001863  76.3300 283.8035 13.12441403118324
ONEWEB-0295             
1 49084U 21075K   24012.93830183  .00000004  00000+0 -22285-4 0  9991
2 49084  87.9212 182.0829 0001379  74.1062 286.0222 13.17650418116888
ONEWEB-0296             
1 49085U 21075L   24012.90092945 -.00000235  00000+0 -68753-3 0  9991
2 49085  87.9014 166.9913 0001461  66.5515 293.5767 13.12441184118325
ONEWEB-0297             
1 49086U 21075M   24012.93268543  .00000103  00000+0  25014-3 0  9999
2 49086  87.9022 166.9799 0001396 100.5701 259.5585 13.12444950118931
ONEWEB-0298             
1 49087U 21075N   24013.01740608 -.00000011  00000+0 -60336-4 0  9994
2 49087  87.9211 182.0870 0001327  87.7929 272.3354 13.17648557117911
ONEWEB-0299             
1 49088U 21075P   24013.01896473 -.00000108  00000+0 -31250-3 0  9996
2 49088  87.9205 182.0628 0001267  85.5142 274.6134 13.17649716117876
ONEWEB-0300             
1 49089U 21075Q   24012.92313266 -.00000354  00000+0 -10204-2 0  9998
2 49089  87.9013 166.9865 0001279 107.9889 252.1379 13.12443610118950
ONEWEB-0301             
1 49090U 21075R   24012.98348875 -.00000377  00000+0 -10822-2 0  9991
2 49090  87.9014 166.9762 0001532 112.2471 247.8820 13.12442481119315
ONEWEB-0302             
1 49091U 21075S   24012.89455006 -.00000016  00000+0 -81175-4 0  9998
2 49091  87.9015 166.9909 0001459  83.3818 276.7477 13.12441542118293
ONEWEB-0304             
1 49092U 21075T   24012.91772670  .00000019  00000+0  16295-4 0  9993
2 49092  87.9210 182.0923 0001444  78.5724 281.5570 13.17647223116860
ONEWEB-0305             
1 49093U 21075U   24012.90981688  .00000069  00000+0  14557-3 0  9997
2 49093  87.9208 182.0855 0001147  75.1536 284.9722 13.17648590116893
ONEWEB-0308             
1 49094U 21075V   24012.88820061  .00000238  00000+0  62695-3 0  9996
2 49094  87.9013 166.9936 0001452  99.7335 260.3957 13.12442301118300
ONEWEB-0309             
1 49095U 21075W   24012.91456197  .00000074  00000+0  15871-3 0  9998
2 49095  87.9211 182.0839 0001926  78.1018 282.0329 13.17648805116862
ONEWEB-0310             
1 49096U 21075X   24012.97872398 -.00000226  00000+0 -66319-3 0  9994
2 49096  87.9022 166.9687 0001650  94.0611 266.0706 13.12441728119948
ONEWEB-0311             
1 49097U 21075Y   24012.92089030  .00000073  00000+0  15380-3 0  9993
2 49097  87.9210 182.0832 0001075  81.0939 279.0314 13.17648583116915
ONEWEB-0312             
1 49098U 21075Z   24012.93514610 -.00000008  00000+0 -54196-4 0  9991
2 49098  87.9212 182.1128 0001510  69.7524 290.3770 13.17647745116892
ONEWEB-0313             
1 49099U 21075AA  24012.91298044  .00000047  00000+0  87578-4 0  9991
2 49099  87.9212 182.1190 0001409  79.1445 280.9845 13.17650850116884
ONEWEB-0314             
1 49100U 21075AB  24012.90664394  .00000055  00000+0  10801-3 0  9991
2 49100  87.9208 182.0845 0001430  72.4414 287.6874 13.17650901116854
ONEWEB-0315             
1 49101U 21075AC  24012.95334152  .00000428  00000+0  11551-2 0  9999
2 49101  87.9014 166.9755 0001418 101.0503 259.0785 13.12441294119928
ONEWEB-0316             
1 49102U 21075AD  24012.92195131  .00000040  00000+0  69004-4 0  9997
2 49102  87.9238 151.8045 0001217  97.1280 262.9991 13.18685407121417
ONEWEB-0317             
1 49103U 21075AE  24012.94697278  .00000457  00000+0  12344-2 0  9994
2 49103  87.9012 166.9842 0001690  92.9893 267.1429 13.12442732118941
ONEWEB-0318             
1 49104U 21075AF  24012.91878888  .00000033  00000+0  50507-4 0  9995
2 49104  87.9233 151.8037 0001156 103.0053 257.1208 13.18685461120362
ONEWEB-0319             
1 49105U 21075AG  24012.99839614 -.00002356  00000+0 -61011-2 0  9990
2 49105  87.9219 182.0938 0000823 100.1747 259.9477 13.17660389117894
ONEWEB-0323             
1 49106U 21075AH  24012.93743487  .00000245  00000+0  64475-3 0  9998
2 49106  87.9014 166.9740 0001254  92.7164 267.4108 13.12445260118304
ONEWEB-0329             
1 49107U 21075AJ  24012.93037392  .00000053  00000+0  10415-3 0  9992
2 49107  87.9211 182.1106 0001420  81.2810 278.8483 13.17650188116870
ONEWEB-0330             
1 49108U 21075AK  24012.93196619  .00000007  00000+0 -15765-4 0  9995
2 49108  87.9211 182.1102 0001547  80.6967 279.4340 13.17650335116911
ONEWEB-0292             
1 49186U 21083A   24012.83797383 -.00000195  00000+0 -56840-3 0  9991
2 49186  87.9015 136.6683 0001450 108.2049 251.9238 13.13470130114578
ONEWEB-0303             
1 49187U 21083B   24012.91562877  .00000042  00000+0  72830-4 0  9996
2 49187  87.9237 151.8019 0001185  98.4423 261.6843 13.18685547113178
ONEWEB-0306             
1 49188U 21083C   24012.90616220 -.00000034  00000+0 -11807-3 0  9997
2 49188  87.9237 151.7923 0001307 110.0898 250.0375 13.18685908113213
ONEWEB-0307             
1 49189U 21083D   24012.83321602 -.00000250  00000+0 -71819-3 0  9996
2 49189  87.9015 136.6680 0001573 103.6620 256.4684 13.13470071114577
ONEWEB-0320             
1 49190U 21083E   24012.91248245  .00000027  00000+0  35661-4 0  9994
2 49190  87.9238 151.8130 0001590 100.6989 259.4322 13.18688209113175
ONEWEB-0321             
1 49191U 21083F   24012.77071185  .00000039  00000+0  63343-4 0  9997
2 49191  87.9179  90.8867 0002092 107.7923 252.3438 13.20776652119824
ONEWEB-0322             
1 49192U 21083G   24013.05698108 -.00000433  00000+0 -12202-2 0  9996
2 49192  87.9016 136.6121 0002124 103.1170 257.0196 13.13469696115881
ONEWEB-0324             
1 49193U 21083H   24012.89824361  .00000008  00000+0 -11222-4 0  9990
2 49193  87.9234 151.7994 0001565  86.7747 273.3565 13.18687520114472
ONEWEB-0325             
1 49194U 21083J   24012.90298905  .00000034  00000+0  52962-4 0  9996
2 49194  87.9232 151.8105 0001521 102.0220 258.1083 13.18688958113208
ONEWEB-0326             
1 49195U 21083K   24012.91722458 -.00000016  00000+0 -73333-4 0  9990
2 49195  87.9237 151.8101 0000911  86.4451 273.6786 13.18684761113191
ONEWEB-0327             
1 49196U 21083L   24012.89115660  .00000000  00000+0 -32634-4 0  9990
2 49196  87.9237 151.8261 0001061 103.6998 256.4252 13.18687091114494
ONEWEB-0328             
1 49197U 21083M   24012.89512117 -.00000149  00000+0 -44262-3 0  9993
2 49197  87.9004 136.6453 0001466  99.2374 260.8921 13.13470506115846
ONEWEB-0331             
1 49198U 21083N   24012.91090084  .00000000  00000+0 -32233-4 0  9992
2 49198  87.9237 151.8029 0001313  91.4777 268.6506 13.18686740113202
ONEWEB-0333             
1 49199U 21083P   24012.89034444 -.00000104  00000+0 -31864-3 0  9992
2 49199  87.9017 136.6557 0001692 111.8754 248.2555 13.13469002115854
